SENTINEL-6              
1 46984U 20086A   23263.54238456 -.00000063  00000+0 -68025-5 0  9996
2 46984  66.0420  53.3993 0007854 268.1931  91.8185 12.80929837132161
